{"type": "FeatureCollection", "features": [ {"type": "Feature", "properties": {"norad_id": 65304, "name": "DRAGON CRS-33", "group": "stations", "lat": 40.132562160866264, "lon": 126.23460998846227, "alt_km": 413.0458664714297, "timestamp": "2025-12-24T11:32:58.752597+00:00", "meta": {"OBJECT_NAME": "DRAGON CRS-33", "OBJECT_ID": "2025-186A", "EPOCH": "2025-12-23T18:17:18.636000", "MEAN_MOTION": 15.49761422, "ECCENTRICITY": 0.00031718, "INCLINATION": 51.6321, "RA_OF_ASC_NODE": 87.8933, "ARG_OF_PERICENTER": 292.1344, "MEAN_ANOMALY": 67.9308, "EPHEMERIS_TYPE": 0, "CLASSIFICATION_TYPE": "U", "NORAD_CAT_ID": 65304, "ELEMENT_SET_NO": 999, "REV_AT_EPOCH": 11, "BSTAR": 0.00020966669, "MEAN_MOTION_DOT": 0.00011429, "MEAN_MOTION_DDOT": 0}, "tle": {"line1": "1 65304U 25186A   25357.76202125  .00011429  00000+0  20967-3 0  9990", "line2": "2 65304  51.6321  87.8933 0003171 292.1344  67.9308 15.49761422   119"}}, "geometry": {"type": "Point", "coordinates": [126.23460998846227, 40.132562160866264]}}, {"type": "Feature", "properties": {"norad_id": 65586, "name": "PROGRESS-MS 32", "group": "stations", "lat": 40.1325625382099, "lon": 126.23461067505247, "alt_km": 413.04586643365747, "timestamp": "2025-12-24T11:32:58.752607+00:00", "meta": {"OBJECT_NAME": "PROGRESS-MS 32", "OBJECT_ID": "2025-204A", "EPOCH": "2025-12-23T18:17:18.636000", "MEAN_MOTION": 15.49761422, "ECCENTRICITY": 0.00031718, "INCLINATION": 51.6321, "RA_OF_ASC_NODE": 87.8933, "ARG_OF_PERICENTER": 292.1344, "MEAN_ANOMALY": 67.9308, "EPHEMERIS_TYPE": 0, "CLASSIFICATION_TYPE": "U", "NORAD_CAT_ID": 65586, "ELEMENT_SET_NO": 999, "REV_AT_EPOCH": 27, "BSTAR": 0.00020966669, "MEAN_MOTION_DOT": 0.00011429, "MEAN_MOTION_DDOT": 0}, "tle": {"line1": "1 65586U 25204A   25357.76202125  .00011429  00000+0  20967-3 0  9993", "line2": "2 65586  51.6321  87.8933 0003171 292.1344  67.9308 15.49761422   278"}}, "geometry": {"type": "Point", "coordinates": [126.23461067505247, 40.1325625382099]}}, {"type": "Feature", "properties": {"norad_id": 65616, "name": "CYGNUS NG-23", "group": "stations", "lat": 40.13256295328802, "lon": 126.23461143030195, "alt_km": 413.0458663921072, "timestamp": "2025-12-24T11:32:58.752618+00:00", "meta": {"OBJECT_NAME": "CYGNUS NG-23", "OBJECT_ID": "2025-208A", "EPOCH": "2025-12-23T18:17:18.636000", "MEAN_MOTION": 15.49761422, "ECCENTRICITY": 0.00031718, "INCLINATION": 51.6321, "RA_OF_ASC_NODE": 87.8933, "ARG_OF_PERICENTER": 292.1344, "MEAN_ANOMALY": 67.9308, "EPHEMERIS_TYPE": 0, "CLASSIFICATION_TYPE": "U", "NORAD_CAT_ID": 65616, "ELEMENT_SET_NO": 999, "REV_AT_EPOCH": 22, "BSTAR": 0.00020966669, "MEAN_MOTION_DOT": 0.00011429, "MEAN_MOTION_DDOT": 0}, "tle": {"line1": "1 65616U 25208A   25357.76202125  .00011429  00000+0  20967-3 0  9991", "line2": "2 65616  51.6321  87.8933 0003171 292.1344  67.9308 15.49761422   227"}}, "geometry": {"type": "Point", "coordinates": [126.23461143030195, 40.13256295328802]}}, {"type": "Feature", "properties": {"norad_id": 65729, "name": "DRAGONFLY", "group": "stations", "lat": -16.273268998643402, "lon": 62.08595097000088, "alt_km": 339.3382061594011, "timestamp": "2025-12-24T11:32:58.752628+00:00", "meta": {"OBJECT_NAME": "DRAGONFLY", "OBJECT_ID": "1998-067XH", "EPOCH": "2025-12-23T20:25:05.087712", "MEAN_MOTION": 15.75691261, "ECCENTRICITY": 0.0007924, "INCLINATION": 51.6249, "RA_OF_ASC_NODE": 78.7101, "ARG_OF_PERICENTER": 343.6586, "MEAN_ANOMALY": 16.4157, "EPHEMERIS_TYPE": 0, "CLASSIFICATION_TYPE": "U", "NORAD_CAT_ID": 65729, "ELEMENT_SET_NO": 999, "REV_AT_EPOCH": 1491, "BSTAR": 0.0011534, "MEAN_MOTION_DOT": 0.00184258, "MEAN_MOTION_DDOT": 0}, "tle": {"line1": "1 65729U 98067XH  25357.85075333  .00184258  00000+0  11534-2 0  9998", "line2": "2 65729  51.6249  78.7101 0007924 343.6586  16.4157 15.75691261 14911"}}, "geometry": {"type": "Point", "coordinates": [62.08595097000088, -16.273268998643402]}}, {"type": "Feature", "properties": {"norad_id": 65731, "name": "1998-067XK", "group": "stations", "lat": 45.422826597161155, "lon": 131.08735631445666, "alt_km": 359.56788040824813, "timestamp": "2025-12-24T11:32:58.752639+00:00", "meta": {"OBJECT_NAME": "1998-067XK", "OBJECT_ID": "1998-067XK", "EPOCH": "2025-12-23T06:12:26.032896", "MEAN_MOTION": 15.67713225, "ECCENTRICITY": 0.00049619, "INCLINATION": 51.6292, "RA_OF_ASC_NODE": 83.7873, "ARG_OF_PERICENTER": 312.0823, "MEAN_ANOMALY": 47.9751, "EPHEMERIS_TYPE": 0, "CLASSIFICATION_TYPE": "U", "NORAD_CAT_ID": 65731, "ELEMENT_SET_NO": 999, "REV_AT_EPOCH": 1479, "BSTAR": 0.00091991075, "MEAN_MOTION_DOT": 0.00103596, "MEAN_MOTION_DDOT": 0}, "tle": {"line1": "1 65731U 98067XK  25357.25863464  .00103596  00000+0  91991-3 0  9997", "line2": "2 65731  51.6292  83.7873 0004961 312.0823  47.9751 15.67713225 14797"}}, "geometry": {"type": "Point", "coordinates": [131.08735631445666, 45.422826597161155]}}, {"type": "Feature", "properties": {"norad_id": 65732, "name": "RSP-03", "group": "stations", "lat": 3.597291228059627, "lon": -106.28509763721749, "alt_km": 358.0087503736031, "timestamp": "2025-12-24T11:32:58.752652+00:00", "meta": {"OBJECT_NAME": "RSP-03", "OBJECT_ID": "1998-067XL", "EPOCH": "2025-12-24T03:10:33.733632", "MEAN_MOTION": 15.71515492, "ECCENTRICITY": 0.0005957, "INCLINATION": 51.6261, "RA_OF_ASC_NODE": 78.3569, "ARG_OF_PERICENTER": 324.1964, "MEAN_ANOMALY": 35.8634, "EPHEMERIS_TYPE": 0, "CLASSIFICATION_TYPE": "U", "NORAD_CAT_ID": 65732, "ELEMENT_SET_NO": 999, "REV_AT_EPOCH": 1495, "BSTAR": 0.0010972, "MEAN_MOTION_DOT": 0.00145625, "MEAN_MOTION_DDOT": 0}, "tle": {"line1": "1 65732U 98067XL  25358.13233488  .00145625  00000+0  10972-2 0  9991", "line2": "2 65732  51.6261  78.3569 0005957 324.1964  35.8634 15.71515492 14957"}}, "geometry": {"type": "Point", "coordinates": [-106.28509763721749, 3.597291228059627]}}, {"type": "Feature", "properties": {"norad_id": 65733, "name": "GHS-01", "group": "stations", "lat": 31.4715411507494, "lon": 103.60319693341673, "alt_km": 322.4416488198676, "timestamp": "2025-12-24T11:32:58.752663+00:00", "meta": {"OBJECT_NAME": "GHS-01", "OBJECT_ID": "1998-067XM", "EPOCH": "2025-12-23T11:05:04.304832", "MEAN_MOTION": 15.79591896, "ECCENTRICITY": 0.00088003, "INCLINATION": 51.6283, "RA_OF_ASC_NODE": 79.8731, "ARG_OF_PERICENTER": 346.0913, "MEAN_ANOMALY": 13.9844, "EPHEMERIS_TYPE": 0, "CLASSIFICATION_TYPE": "U", "NORAD_CAT_ID": 65733, "ELEMENT_SET_NO": 999, "REV_AT_EPOCH": 1487, "BSTAR": 0.0014327729, "MEAN_MOTION_DOT": 0.00275731, "MEAN_MOTION_DDOT": 0}, "tle": {"line1": "1 65733U 98067XM  25357.46185538  .00275731  00000+0  14328-2 0  9990", "line2": "2 65733  51.6283  79.8731 0008800 346.0913  13.9844 15.79591896 14877"}}, "geometry": {"type": "Point", "coordinates": [103.60319693341673, 31.4715411507494]}}, {"type": "Feature", "properties": {"norad_id": 65941, "name": "YOTSUBA-KULOVER", "group": "stations", "lat": -51.44687922126381, "lon": -15.276569843136086, "alt_km": 389.23159345556087, "timestamp": "2025-12-24T11:32:58.752674+00:00", "meta": {"OBJECT_NAME": "YOTSUBA-KULOVER", "OBJECT_ID": "1998-067XN", "EPOCH": "2025-12-23T12:54:09.902304", "MEAN_MOTION": 15.60866, "ECCENTRICITY": 0.00021899, "INCLINATION": 51.6292, "RA_OF_ASC_NODE": 85.6499, "ARG_OF_PERICENTER": 347.5579, "MEAN_ANOMALY": 12.536, "EPHEMERIS_TYPE": 0, "CLASSIFICATION_TYPE": "U", "NORAD_CAT_ID": 65941, "ELEMENT_SET_NO": 999, "REV_AT_EPOCH": 1154, "BSTAR": 0.00081748527, "MEAN_MOTION_DOT": 0.00069745, "MEAN_MOTION_DDOT": 0}, "tle": {"line1": "1 65941U 98067XN  25357.53761461  .00069745  00000+0  81749-3 0  9992", "line2": "2 65941  51.6292  85.6499 0002189 347.5579  12.5360 15.60866000 11543"}}, "geometry": {"type": "Point", "coordinates": [-15.276569843136086, -51.44687922126381]}}, {"type": "Feature", "properties": {"norad_id": 65942, "name": "BOTAN", "group": "stations", "lat": 28.934828243052767, "lon": 105.8478664809943, "alt_km": 367.8217970119058, "timestamp": "2025-12-24T11:32:58.752685+00:00", "meta": {"OBJECT_NAME": "BOTAN", "OBJECT_ID": "1998-067XP", "EPOCH": "2025-12-23T23:07:45.899616", "MEAN_MOTION": 15.65195853, "ECCENTRICITY": 0.00032883, "INCLINATION": 51.6282, "RA_OF_ASC_NODE": 82.4941, "ARG_OF_PERICENTER": 330.2787, "MEAN_ANOMALY": 29.802, "EPHEMERIS_TYPE": 0, "CLASSIFICATION_TYPE": "U", "NORAD_CAT_ID": 65942, "ELEMENT_SET_NO": 999, "REV_AT_EPOCH": 1162, "BSTAR": 0.0010936719, "MEAN_MOTION_DOT": 0.00111413, "MEAN_MOTION_DDOT": 0}, "tle": {"line1": "1 65942U 98067XP  25357.96372569  .00111413  00000+0  10937-2 0  9997", "line2": "2 65942  51.6282  82.4941 0003288 330.2787  29.8020 15.65195853 11620"}}, "geometry": {"type": "Point", "coordinates": [105.8478664809943, 28.934828243052767]}}, {"type": "Feature", "properties": {"norad_id": 65943, "name": "E-KAGAKU-1", "group": "stations", "lat": -51.39964910420407, "lon": -16.154540330536996, "alt_km": 388.65031232268484, "timestamp": "2025-12-24T11:32:58.752696+00:00", "meta": {"OBJECT_NAME": "E-KAGAKU-1", "OBJECT_ID": "1998-067XQ", "EPOCH": "2025-12-22T10:46:55.533504", "MEAN_MOTION": 15.60710313, "ECCENTRICITY": 0.00012968, "INCLINATION": 51.6319, "RA_OF_ASC_NODE": 91.1385, "ARG_OF_PERICENTER": 295.9007, "MEAN_ANOMALY": 64.1852, "EPHEMERIS_TYPE": 0, "CLASSIFICATION_TYPE": "U", "NORAD_CAT_ID": 65943, "ELEMENT_SET_NO": 999, "REV_AT_EPOCH": 1137, "BSTAR": 0.00086344374, "MEAN_MOTION_DOT": 0.00073283, "MEAN_MOTION_DDOT": 0}, "tle": {"line1": "1 65943U 98067XQ  25356.44925386  .00073283  00000+0  86344-3 0  9999", "line2": "2 65943  51.6319  91.1385 0001296 295.9007  64.1852 15.60710313 11376"}}, "geometry": {"type": "Point", "coordinates": [-16.154540330536996, -51.39964910420407]}}]}